#dP2024  2 19  0  0  0.00000000     289 d+D   IGS20 FIT AIUB
## 2302  86400.00000000   300.00000000 60359 0.0000000000000
+  120   G01G02G03G04G05G06G07G08G09G10G11G12G13G14G15G16G17
+        G18G19G20G21G22G23G24G25G26G27G28G29G30G31G32R01R02
+        R03R04R05R07R08R09R11R12R13R14R15R16R17R18R19R20R21
+        R22R24R26E02E03E04E05E07E08E09E10E11E12E13E14E15E18
+        E19E21E24E25E26E27E30E31E33E34E36C06C07C08C09C10C11
+        C12C13C14C16C19C20C21C22C23C24C25C26C27C28C29C30C32
+        C33C34C35C36C37C38C39C40C41C42C43C44C45C46C48J02J03
+        J04  0  0  0  0  0  0  0  0  0  0  0  0  0  0  0  0
++         5  5  5  5  5  5  5  5  5  5  5  5  5  5  5  5  5
++         5  5  5  5  5  5  5  5  5  5  5  5  5  5  5  6  5
++         5  5  5  5  5  5  5  5  5  5  5  5  5  5  5  5  5
++         5  7  5  5  5  5  5  5  5  5  5  5  5  5  5  5  5
++         5  5  5  5  5  5  5  5  5  5  5  5  5  5  5  5  5
++         5  5  5  5  5  5  5  5  5  5  5  5  5  5  5  5  5
++         5  5  5  5  5  5  5  5  5  5  5  5  5  5  5  5  5
++         5  0  0  0  0  0  0  0  0  0  0  0  0  0  0  0  0
%c M  cc GPS ccc cccc cccc cccc cccc ccccc ccccc ccccc ccccc
%c cc cc ccc ccc cccc cccc cccc cccc ccccc ccccc ccccc ccccc
%f  1.2500000  1.025000000  0.00000000000  0.000000000000000
%f  0.0000000  0.000000000  0.00000000000  0.000000000000000
%i    0    0    0    0      0      0      0      0         0
%i    0    0    0    0      0      0      0      0         0
/* Center for Orbit Determination in Europe (CODE)                              
/* MGEX orbits and clocks for year-day 2024-0500                                
/* Middle day of a 3-day long-arc multi-GNSS solution                           
/* Systems considered: GPS/GLONASS/Galileo/BeiDou/QZSS                          
/* Product reference - DOI 10.48350/185742                                      
/* PCV:IGS20      OL/AL:FES2014b NONE     YN ORB:CoN CLK:CoN                    
*  2024  2 19 15 55  0.00000000
PG01  -1287.176557 -15156.302773 -22076.706508    170.210472
PG02   7255.148413 -17872.344844 -17651.062231   -482.955580
PG03  -5643.571809 -18931.672785 -17956.178497    203.296990
PG04   1416.228811 -26254.222039   3213.318374    295.634747
PG05  -7090.081587  13193.133896  21757.773374   -162.406637
PG06 -24852.020947   4947.726762  -8072.441363    400.769677
PG07 -14112.239662  -9965.988396  20778.825761    -65.744316
PG08   5839.373865 -25016.807250   5688.274593   -167.814092
PG09  -8541.485087 -20501.657590  14443.299946     97.525521
PG10  23253.596000   9621.991149  -8782.404684      1.016177
PG11 -23432.842154  11893.188215   3709.420451   -581.159761
PG12   3537.805742  19397.689468 -18114.221857   -479.544957
PG13 -13313.961704  19286.430110  12078.607659    626.999109
PG14 -22876.795055 -12529.786971  -5500.583799    329.933428
PG15  -2730.366533  25669.810366   5271.210996    129.362979
PG16  13798.477984  -7526.040242  21138.950276   -359.139947
PG17 -13230.022596  -8263.017732 -21051.320669    716.473669
PG18  14747.618630   8738.752669  20351.948227   -559.052473
PG19 -15512.283320   1620.787577 -21639.339193    442.898186
PG20 -18547.572231   5402.244122  18219.948609    386.902200
PG21  11845.992835 -18046.298822 -14297.678311    134.353404
PG22 -21814.985235  -7490.756499 -12481.588253     28.621067
PG23  20654.759480  16587.929978   3053.254017    159.605532
PG24  -8247.560269  18966.533062 -16844.568374   -434.304928
PG25  14402.931094  19742.811498 -11067.200131    489.064924
PG26  21591.296075   -314.442024  15548.421331    188.508765
PG27  12614.467898 -16783.664439  15725.209280     -5.414010
PG28  24076.066219  -3430.068137 -10690.762571   -136.468966
PG29   5355.328528  22124.098905  13549.256943   -606.648155
PG30 -22243.606175  -2002.411189  14704.876205   -430.482390
PG31  25067.623397  -9328.124457  -1575.674124   -227.816333
PG32  14672.546528   4342.602820 -21522.776637   -612.453693
PR01  -8469.106438 -24017.857996   1571.651528     77.587613
PR02 -12339.049319 -13945.925546  17448.623368    -22.513203
PR03 -10019.955137   4398.285798  23094.790256     94.810107
PR04  -2229.188510  19702.149440  16090.292082    224.114969
PR05   6621.029860  24644.735918    409.670333    127.148395
PR07   9716.438592  -5207.878691 -22954.983379     76.162202
PR08   1973.832442 -19887.782690 -15765.430962    -74.482435
PR09  23661.864057   7747.760584  -5338.611747    170.870955
PR11  10293.606197  -8259.074499  21830.352875     33.800818
PR12 -10508.590720 -12268.039111  19752.867833     36.913069
PR13 -22612.812242  -8935.652850   7682.733290    -44.525385
PR14 -22697.078252    551.895493 -11640.757654     26.070625
PR15  -8884.904170   8859.184122 -22197.557709     82.048623
PR16  10308.166840  12082.410808 -19947.333610     23.395108
PR17 -19262.592844  12818.791323 -10691.225832     62.556120
PR18 -15587.554885  19386.820524   5792.995179    128.189872
PR19  -5707.606479  16707.489560  18414.269665   -266.415243
PR20  11819.006185   2592.236210  22458.294383   -108.530487
PR21  19377.312271 -12871.660899  10488.761260    -78.253634
PR22  15471.959976 -19107.493574  -6735.245559    108.877811
PR24 -12650.505792  -1887.030527 -22048.989948    -44.575435
PR26   2382.497663 -19291.531690 -16505.954661   -197.581465
PE02 -10706.758055 -22263.951362  16278.123446    104.718180
PE03  -2163.920849 -28443.503572   7921.148277    -94.894359
PE04  13686.731741  14433.772499 -21911.947592   -331.037976
PE05  10444.276914 -25637.533375 -10473.481285   4721.566970
PE07 -17086.740042   7361.917457  23027.317603   -104.619144
PE08 -13274.053524 -15139.013922  21702.734559   -226.400301
PE09  16953.138622  -7271.889888 -23147.845016   -341.847303
PE10  25971.286964  -1272.010649  14140.809895   -603.180074
PE11  27907.268269  -8805.235069   4376.389268   3236.902540
PE12  20403.283907   5807.397674  20634.703092   -913.293847
PE13 -27934.625083   8410.480626  -5048.642715    -20.236169
PE14 -13008.577918 -22085.705710 -19348.274542     43.968963
PE15 -19987.745834  -6090.992367 -20961.097161    -86.710116
PE18  14295.400400   7771.942157  18252.595779    345.001235
PE19    480.562904  29005.640413  -5884.500033   -584.171298
PE21  -8171.318213  14844.332378 -24279.748148   -579.841655
PE24  23331.756018   1977.745952  18099.783065   -607.128667
PE25   8564.013663 -14564.446586  24299.845890      1.101874
PE26 -18884.911397  17984.893524  14018.678526    373.440915
PE27 -23125.257627  -1543.379651 -18411.572864   -278.744835
PE30 -24154.745150 -17024.115778  -1559.504745    -13.589936
PE31  24281.719798  16845.185540   1748.491275    -16.369901
PE33   -179.381632  16995.660719  24241.397956      7.839780
PE34   -469.915024 -16815.555419 -24354.303528    -95.529943
PE36  19426.305070 -17746.895134 -13536.123481   -188.170987
PC06 -19218.814694  32189.929428 -19541.260921    120.589989
PC07  -4902.411071  38051.533302 -17166.778412   -827.450985
PC08  -5082.626654  19795.198098  36883.697463     25.828992
PC09 -12530.741373  30870.623145 -25752.871486   -512.012013
PC10   1342.179833  40240.189408 -11200.034600     78.417034
PC11 -13584.217487  -7413.679993 -23151.737902    418.904468
PC12   1504.091448 -22031.686465 -17018.038439    766.100413
PC13   4125.137806  23585.801826  34918.800214    418.698555
PC14 -18101.629107 -17292.713419  12409.485503    226.221975
PC16 -21734.340349  31768.708792 -17313.713998   -349.231831
PC19  18551.004106   8270.437509 -19097.140583   -925.419995
PC20  15355.501960  22650.134690  -5370.506601   -178.482434
PC21  -2503.226327 -24620.186367 -12903.753553   -961.918421
PC22  11276.890438 -11746.292012 -22664.523056   -103.899027
PC23 -23090.330916   8273.103124 -13309.885501   -780.157307
PC24 -15736.861056 -14104.637161  18190.894090    899.234797
PC25 -27556.692718  -3123.524256   2987.639359    330.021389
PC26   4210.998004 -16027.115797  22434.481834   -251.513440
PC27  -8305.360864  24739.924327   9886.072808    273.421050
PC28 -18442.881809  20113.607953  -5841.036610    208.072798
PC29  18525.260638  -2302.745036  20736.456192    243.902886
PC30   7046.511639  16827.341152  21116.556307    -27.230363
PC32   2573.806963  24546.567528  13027.281333   -570.100333
PC33 -18662.658585  -8256.868891  19049.861307   -950.096984
PC34  -8324.267791 -15541.265671 -21637.267326    372.791832
PC35  17722.014431 -20692.137972   5931.167174    429.858413
PC36  27396.312006   4074.978596  -3443.701994     -9.306169
PC37  -5018.392192  15875.747148 -22389.975230   -937.465227
PC38 -14309.453065  18751.261569  34985.062229    137.778896
PC39 -24954.028587  32281.482389 -11022.851612     -7.238161
PC40  -9438.009430  35121.391260 -21100.914201    -57.238922
PC41 -11827.548940  10964.346222  22829.560452   -893.160307
PC42 -14725.768421 -23413.184137   3871.820341   -453.030155
PC43 -18319.671341   1269.504804 -21029.244549     61.019632
PC44   7376.789646 -25078.341744  -9732.236244    389.298909
PC45  22994.710864  -8244.885915  13503.406697    -71.155483
PC46  16632.877707  13742.222402 -17733.453552   -125.192303
PC48  18296.165678  16974.971947 -12478.151939    127.879248
PJ02 -23893.546369  17540.864215 -25377.758692     -2.129194
PJ03 -29282.239118  30233.201661   7746.036305     -0.228661
PJ04 -24368.645327  28818.484120  24705.389929     50.879083
EOF
